IRIDIUM 119             
1 42959U 17061E   25207.16817931  .00000067  00000+0  16707-4 0  9993
2 42959  86.4019 161.5171 0002288  79.1977 280.9476 14.34218087408085
IRIDIUM 107             
1 42960U 17061F   25206.41975077  .00000079  00000+0  21015-4 0  9999
2 42960  86.4020 161.8486 0001890  78.0607 282.0800 14.34217282407985
IRIDIUM 132             
1 42961U 17061G   25206.91447547  .00000047  00000+0  96109-5 0  9993
2 42961  86.4018 161.6241 0002146  84.7193 275.4247 14.34217807408052
IRIDIUM 136             
1 42962U 17061H   25207.15549436  .00000022  00000+0  75494-6 0  9999
2 42962  86.4020 161.5286 0002202  79.2646 280.8798 14.34217731408102
IRIDIUM 139             
1 42963U 17061J   25206.95253094  .00000009  00000+0 -38010-5 0  9997
2 42963  86.4021 161.6698 0002023  83.3029 276.8397 14.34217685408089
IRIDIUM 125             
1 42964U 17061K   25207.14915125  .00000032  00000+0  44867-5 0  9992
2 42964  86.4023 161.6427 0002164  69.4874 290.6554 14.34217848408126
IRIDIUM 135             
1 43070U 17083A   25206.77443523  .00000038  00000+0  63669-5 0  9998
2 43070  86.3952  98.4922 0002287  89.7640 270.3818 14.34217726397360
IRIDIUM 138             
1 43071U 17083B   25206.73003723  .00000057  00000+0  13181-4 0  9993
2 43071  86.3941  98.1766 0002505  74.8315 285.3158 14.34217892397344
